IRIDIUM 38 [-]          
1 25043U 97069E   23276.64187442  .00000651  00000+0  21373-3 0  9991
2 25043  86.3958 134.8784 0003068  41.6158 318.5272 14.36895835356523
IRIDIUM 42 [-]          
1 25077U 97077A   23276.73913031  .00000625  00000+0  21169-3 0  9992
2 25077  86.3974 140.2463 0002174  68.3436 291.7991 14.35211932351888
IRIDIUM 44 [-]          
1 25078U 97077B   23276.82548680  .00000708  00000+0  22311-3 0  9999
2 25078  86.3930 123.8129 0000334  45.5688 314.5538 14.38996630354162
IRIDIUM 45 [-]          
1 25104U 97082A   23276.70834808  .00014324  00000+0  91950-3 0  9996
2 25104  86.3793 342.3920 0182807  90.9139 271.3041 14.95495680358285
IRIDIUM 24 [-]          
1 25105U 97082B   23276.67386908  .00000812  00000+0  24790-3 0  9991
2 25105  86.3954 343.9061 0010630 343.2958  16.7890 14.40754232353543
IRIDIUM 51 [-]          
1 25262U 98018A   23276.72970454  .00014099  00000+0  78237-3 0  9993
2 25262  86.3973 352.9382 0167486  46.4670 315.0336 15.02338347352654
